start=new Date('2022-10-09T00:00:00.000Z').valueOf();
sats=[{"RA_OF_ASC_NODE":"118.5199","OBJECT_NAME":"STARLINK-1638","EPHEMERIS_TYPE":"0","DECAY_DATE":null,"OBJECT_TYPE":"PAYLOAD","COUNTRY_CODE":"US","MEAN_MOTION_DOT":"-0.00001252","ARG_OF_PERICENTER":"118.3584","INCLINATION":"53.0572","TIME_SYSTEM":"UTC","BSTAR":"-0.00006518900000","GP_ID":"214502795","SITE":"AFETR","PERIAPSIS":"546.331","NORAD_CAT_ID":"46134","TLE_LINE2":"2 46134  53.0572 118.5199 0001294 118.3584 241.7535 15.06395667118546","MEAN_ELEMENT_THEORY":"SGP4","EPOCH":"2022-10-08T19:42:11.071008","APOAPSIS":"548.123","CLASSIFICATION_TYPE":"U","ELEMENT_SET_NO":"999","PERIOD":"95.592","TLE_LINE1":"1 46134U 20057T   22281.82096147 -.00001252  00000-0 -65189-4 0  9999","MEAN_MOTION":"15.06395667","FILE":"3596607","REF_FRAME":"TEME","MEAN_MOTION_DDOT":"0.0000000000000","SEMIMAJOR_AXIS":"6925.362","REV_AT_EPOCH":"11854","CENTER_NAME":"EARTH","OBJECT_ID":"2020-057T","MEAN_ANOMALY":"241.7535","RCS_SIZE":"LARGE","ECCENTRICITY":"0.00012940","LAUNCH_DATE":"2020-08-18"},{"PERIOD":"95.592","ELEMENT_SET_NO":"999","TLE_LINE1":"1 46135U 20057U   22281.83664659 -.00000040  00000-0  16184-4 0  9994","MEAN_MOTION":"15.06399464","MEAN_ELEMENT_THEORY":"SGP4","EPOCH":"2022-10-08T20:04:46.265376","CLASSIFICATION_TYPE":"U","APOAPSIS":"548.120","MEAN_ANOMALY":"265.4841","CENTER_NAME":"EARTH","OBJECT_ID":"2020-057U","RCS_SIZE":"LARGE","ECCENTRICITY":"0.00013060","LAUNCH_DATE":"2020-08-18","FILE":"3596607","MEAN_MOTION_DDOT":"0.0000000000000","REF_FRAME":"TEME","REV_AT_EPOCH":"11854","SEMIMAJOR_AXIS":"6925.350","OBJECT_TYPE":"PAYLOAD","DECAY_DATE":null,"COUNTRY_CODE":"US","MEAN_MOTION_DOT":"-0.00000040","ARG_OF_PERICENTER":"94.6297","INCLINATION":"53.0534","RA_OF_ASC_NODE":"118.4509","OBJECT_NAME":"STARLINK-1639","EPHEMERIS_TYPE":"0","SITE":"AFETR","PERIAPSIS":"546.311","NORAD_CAT_ID":"46135","TLE_LINE2":"2 46135  53.0534 118.4509 0001306  94.6297 265.4841 15.06399464118542","TIME_SYSTEM":"UTC","BSTAR":"0.00001618400000","GP_ID":"214502549"},{"APOAPSIS":"548.171","CLASSIFICATION_TYPE":"U","MEAN_ELEMENT_THEORY":"SGP4","EPOCH":"2022-10-08T19:38:12.152544","TLE_LINE1":"1 46136U 20057V   22281.81819621 -.00000054  00000-0  15245-4 0  9996","MEAN_MOTION":"15.06394531","ELEMENT_SET_NO":"999","PERIOD":"95.592","REF_FRAME":"TEME","MEAN_MOTION_DDOT":"0.0000000000000","SEMIMAJOR_AXIS":"6925.365","REV_AT_EPOCH":"11878","FILE":"3596418","ECCENTRICITY":"0.00013590","LAUNCH_DATE":"2020-08-18","CENTER_NAME":"EARTH","OBJECT_ID":"2020-057V","MEAN_ANOMALY":"270.0018","RCS_SIZE":"LARGE","EPHEMERIS_TYPE":"0","RA_OF_ASC_NODE":"148.5104","OBJECT_NAME":"STARLINK-1643","INCLINATION":"53.0533","OBJECT_TYPE":"PAYLOAD","DECAY_DATE":null,"MEAN_MOTION_DOT":"-0.00000054","COUNTRY_CODE":"US","ARG_OF_PERICENTER":"90.1127","BSTAR":"0.00001524500000","TIME_SYSTEM":"UTC","GP_ID":"214479269","NORAD_CAT_ID":"46136","TLE_LINE2":"2 46136  53.0533 148.5104 0001359  90.1127 270.0018 15.06394531118782","SITE":"AFETR","PERIAPSIS":"546.289"},{"MEAN_ELEMENT_THEORY":"SGP4","EPOCH":"2022-10-08T20:07:25.768416","APOAPSIS":"548.270","CLASSIFICATION_TYPE":"U","ELEMENT_SET_NO":"999","PERIOD":"95.592","TLE_LINE1":"1 46137U 20057W   22281.83849269  .00000390  00000-0  45056-4 0  9995","MEAN_MOTION":"15.06394453","FILE":"3596607","REF_FRAME":"TEME","MEAN_MOTION_DDOT":"0.0000000000000","SEMIMAJOR_AXIS":"6925.366","REV_AT_EPOCH":"11826","OBJECT_ID":"2020-057W","CENTER_NAME":"EARTH","MEAN_ANOMALY":"286.9004","RCS_SIZE":"LARGE","ECCENTRICITY":"0.00015010","LAUNCH_DATE":"2020-08-18","RA_OF_ASC_NODE":"138.4517","OBJECT_NAME":"STARLINK-1586","EPHEMERIS_TYPE":"0","DECAY_DATE":null,"OBJECT_TYPE":"PAYLOAD","COUNTRY_CODE":"US","MEAN_MOTION_DOT":"0.00000390","ARG_OF_PERICENTER":"73.2149","INCLINATION":"53.0536","BSTAR":"0.00004505600000","TIME_SYSTEM":"UTC","GP_ID":"214503548","SITE":"AFETR","PERIAPSIS":"546.191","NORAD_CAT_ID":"46137","TLE_LINE2":"2 46137  53.0536 138.4517 0001501  73.2149 286.9004 15.06394453118264"},{"RCS_SIZE":"LARGE","CENTER_NAME":"EARTH","MEAN_ANOMALY":"247.6026","OBJECT_ID":"2020-057X","LAUNCH_DATE":"2020-08-18","ECCENTRICITY":"0.00011900","FILE":"3596400","SEMIMAJOR_AXIS":"6925.340","REV_AT_EPOCH":"11864","REF_FRAME":"TEME","MEAN_MOTION_DDOT":"0.0000000000000","PERIOD":"95.592","ELEMENT_SET_NO":"999","MEAN_MOTION":"15.06402679","TLE_LINE1":"1 46138U 20057X   22281.83664159  .00003515  00000-0  25472-3 0  9990","EPOCH":"2022-10-08T20:04:45.833376","MEAN_ELEMENT_THEORY":"SGP4","APOAPSIS":"548.029","CLASSIFICATION_TYPE":"U","PERIAPSIS":"546.381","SITE":"AFETR","TLE_LINE2":"2 46138  53.0544 158.4563 0001190 112.5089 247.6026 15.06402679118641","NORAD_CAT_ID":"46138","GP_ID":"214478892","TIME_SYSTEM":"UTC","BSTAR":"0.00025472000000","MEAN_MOTION_DOT":"0.00003515","COUNTRY_CODE":"US","ARG_OF_PERICENTER":"112.5089","DECAY_DATE":null,"OBJECT_TYPE":"PAYLOAD","INCLINATION":"53.0544","OBJECT_NAME":"STARLINK-1590","RA_OF_ASC_NODE":"158.4563","EPHEMERIS_TYPE":"0"},{"PERIAPSIS":"546.332","SITE":"AFETR","TLE_LINE2":"2 46140  53.0527 118.6165 0001258  76.4677 283.6452 15.06403277119804","NORAD_CAT_ID":"46140","GP_ID":"214503048","BSTAR":"0.00024020000000","TIME_SYSTEM":"UTC","COUNTRY_CODE":"US","MEAN_MOTION_DOT":"0.00003298","ARG_OF_PERICENTER":"76.4677","OBJECT_TYPE":"PAYLOAD","DECAY_DATE":null,"INCLINATION":"53.0527","OBJECT_NAME":"STARLINK-1594","RA_OF_ASC_NODE":"118.6165","EPHEMERIS_TYPE":"0","RCS_SIZE":"LARGE","CENTER_NAME":"EARTH","OBJECT_ID":"2020-057Z","MEAN_ANOMALY":"283.6452","LAUNCH_DATE":"2020-08-18","ECCENTRICITY":"0.00012580","FILE":"3596607","REV_AT_EPOCH":"11980","SEMIMAJOR_AXIS":"6925.339","MEAN_MOTION_DDOT":"0.0000000000000","REF_FRAME":"TEME","PERIOD":"95.592","ELEMENT_SET_NO":"999","MEAN_MOTION":"15.06403277","TLE_LINE1":"1 46140U 20057Z   22281.79610202  .00003298  00000-0  24020-3 0  9994","EPOCH":"2022-10-08T19:06:23.214528","MEAN_ELEMENT_THEORY":"SGP4","CLASSIFICATION_TYPE":"U","APOAPSIS":"548.075"},{"FILE":"3596402","SEMIMAJOR_AXIS":"6925.350","REV_AT_EPOCH":"11920","REF_FRAME":"TEME","MEAN_MOTION_DDOT":"0.0000000000000","RCS_SIZE":"LARGE","OBJECT_ID":"2020-057AA","CENTER_NAME":"EARTH","MEAN_ANOMALY":"259.5903","LAUNCH_DATE":"2020-08-18","ECCENTRICITY":"0.00012650","EPOCH":"2022-10-08T20:10:04.834272","MEAN_ELEMENT_THEORY":"SGP4","APOAPSIS":"548.091","CLASSIFICATION_TYPE":"U","ELEMENT_SET_NO":"999","PERIOD":"95.592","MEAN_MOTION":"15.06399593","TLE_LINE1":"1 46141U 20057AA  22281.84033373  .00000500  00000-0  52436-4 0  9995","GP_ID":"214478932","TIME_SYSTEM":"UTC","BSTAR":"0.00005243600000","PERIAPSIS":"546.339","SITE":"AFETR","TLE_LINE2":"2 46141  53.0542 118.4192 0001265 100.5228 259.5903 15.06399593119201","NORAD_CAT_ID":"46141","OBJECT_NAME":"STARLINK-1596","RA_OF_ASC_NODE":"118.4192","EPHEMERIS_TYPE":"0","MEAN_MOTION_DOT":"0.00000500","COUNTRY_CODE":"US","ARG_OF_PERICENTER":"100.5228","DECAY_DATE":null,"OBJECT_TYPE":"PAYLOAD","INCLINATION":"53.0542"},{"EPHEMERIS_TYPE":"0","OBJECT_NAME":"STARLINK-1597","RA_OF_ASC_NODE":"158.3556","INCLINATION":"53.0540","COUNTRY_CODE":"US","MEAN_MOTION_DOT":"0.00001860","ARG_OF_PERICENTER":"114.6227","DECAY_DATE":null,"OBJECT_TYPE":"PAYLOAD","GP_ID":"214504048","TIME_SYSTEM":"UTC","BSTAR":"0.00014377000000","TLE_LINE2":"2 46142  53.0540 158.3556 0001260 114.6227 245.4893 15.06390614117987","NORAD_CAT_ID":"46142","PERIAPSIS":"546.370","SITE":"AFETR","APOAPSIS":"548.115","CLASSIFICATION_TYPE":"U","EPOCH":"2022-10-08T20:36:37.650240","MEAN_ELEMENT_THEORY":"SGP4","MEAN_MOTION":"15.06390614","TLE_LINE1":"1 46142U 20057AB  22281.85876910  .00001860  00000-0  14377-3 0  9990","ELEMENT_SET_NO":"999","PERIOD":"95.593","SEMIMAJOR_AXIS":"6925.377","REV_AT_EPOCH":"11798","REF_FRAME":"TEME","MEAN_MOTION_DDOT":"0.0000000000000","FILE":"3596607","LAUNCH_DATE":"2020-08-18","ECCENTRICITY":"0.00012600","RCS_SIZE":"LARGE","MEAN_ANOMALY":"245.4893","CENTER_NAME":"EARTH","OBJECT_ID":"2020-057AB"},{"MEAN_MOTION":"15.06399046","TLE_LINE1":"1 46144U 20057AD  22281.82374500  .00000725  00000-0  67582-4 0  9993","ELEMENT_SET_NO":"999","PERIOD":"95.592","APOAPSIS":"547.990","CLASSIFICATION_TYPE":"U","EPOCH":"2022-10-08T19:46:11.568000","MEAN_ELEMENT_THEORY":"SGP4","LAUNCH_DATE":"2020-08-18","ECCENTRICITY":"0.00011170","RCS_SIZE":"LARGE","MEAN_ANOMALY":"272.7879","OBJECT_ID":"2020-057AD","CENTER_NAME":"EARTH","SEMIMAJOR_AXIS":"6925.351","REV_AT_EPOCH":"10651","REF_FRAME":"TEME","MEAN_MOTION_DDOT":"0.0000000000000","FILE":"3596607","INCLINATION":"53.0513","MEAN_MOTION_DOT":"0.00000725","COUNTRY_CODE":"US","ARG_OF_PERICENTER":"87.3238","OBJECT_TYPE":"PAYLOAD","DECAY_DATE":null,"EPHEMERIS_TYPE":"0","OBJECT_NAME":"STARLINK-1606","RA_OF_ASC_NODE":"138.5029","TLE_LINE2":"2 46144  53.0513 138.5029 0001117  87.3238 272.7879 15.06399046106515","NORAD_CAT_ID":"46144","PERIAPSIS":"546.443","SITE":"AFETR","GP_ID":"214502796","BSTAR":"0.00006758200000","TIME_SYSTEM":"UTC"},{"PERIAPSIS":"546.411","SITE":"AFETR","TLE_LINE2":"2 46146  53.0564 158.6073 0001172  92.2323 267.8801 15.06397087118646","NORAD_CAT_ID":"46146","GP_ID":"214478959","TIME_SYSTEM":"UTC","BSTAR":"-0.00007595800000","COUNTRY_CODE":"US","MEAN_MOTION_DOT":"-0.00001412","ARG_OF_PERICENTER":"92.2323","OBJECT_TYPE":"PAYLOAD","DECAY_DATE":null,"INCLINATION":"53.0564","OBJECT_NAME":"STARLINK-1608","RA_OF_ASC_NODE":"158.6073","EPHEMERIS_TYPE":"0","RCS_SIZE":"LARGE","CENTER_NAME":"EARTH","MEAN_ANOMALY":"267.8801","OBJECT_ID":"2020-057AF","LAUNCH_DATE":"2020-08-18","ECCENTRICITY":"0.00011720","FILE":"3596405","SEMIMAJOR_AXIS":"6925.357","REV_AT_EPOCH":"11864","REF_FRAME":"TEME","MEAN_MOTION_DDOT":"0.0000000000000","PERIOD":"95.592","ELEMENT_SET_NO":"999","MEAN_MOTION":"15.06397087","TLE_LINE1":"1 46146U 20057AF  22281.80347306 -.00001412  00000-0 -75958-4 0  9999","EPOCH":"2022-10-08T19:17:00.072384","MEAN_ELEMENT_THEORY":"SGP4","APOAPSIS":"548.034","CLASSIFICATION_TYPE":"U"}];
